#aV2015  3 12  0  0  0.00000000     288 DD+AD WGS84 FIT  NGA
## 1835 345600.00000000   300.00000000 57093 0.0000000000000
+   31     1  2  3  4  5  6  7  8  9 10 11 12 13 14 15 16 17
+         18 19 20 21 22 23 24 25 27 28 29 30 31 32  0  0  0
+          0  0  0  0  0  0  0  0  0  0  0  0  0  0  0  0  0
+          0  0  0  0  0  0  0  0  0  0  0  0  0  0  0  0  0
+          0  0  0  0  0  0  0  0  0  0  0  0  0  0  0  0  0
++         2  2  2  2  2  2  2  2  2  2  2  2  2  2  2  2  2
++         2  2  2  2  2  2  2  2  2  2  2  2  2  2  0  0  0
++         0  0  0  0  0  0  0  0  0  0  0  0  0  0  0  0  0
++         0  0  0  0  0  0  0  0  0  0  0  0  0  0  0  0  0
++         0  0  0  0  0  0  0  0  0  0  0  0  0  0  0  0  0
%c cc cc ccc ccc cccc cccc cccc cccc ccccc ccccc ccccc ccccc
%c cc cc ccc ccc cccc cccc cccc cccc ccccc ccccc ccccc ccccc
%f  0.0000000  0.000000000  0.00000000000  0.000000000000000
%f  0.0000000  0.000000000  0.00000000000  0.000000000000000
%i    0    0    0    0      0      0      0      0         0
%i    0    0    0    0      0      0      0      0         0
/*      NGA, ST. LOUIS,MO.                                  
/*   EPHEMERIS COMPUTED FROM  1 DAYS OF DATA                
/*   EPOCHA SMOOTHER                                       
/* CCCCCCCCCCCCCCCCCCCCCCCCCCCCCCCCCCCCCCCCCCCCCCCCCCCCCCCCC
*  2015  3 12  4 10  0.00000000
P  1  13872.035038  -7640.049497  21247.369151     -8.064295                    
V  1   4493.743929  26753.667571   6842.653216      0.004440                    
P  2 -14120.751841 -16717.862463 -15015.300031    553.019584                    
V  2  -1225.808659 -19653.937104  22042.605119      0.023148                    
P  3  22623.276978 -12589.067147   6042.031715    250.975526                    
V  3  -4304.531751   6884.077089  30455.383719      0.174463                    
P  4  15909.400279   3681.033742  20673.361125     -8.868957                    
V  4   3631.410437  26774.452551  -7186.543324     -0.007539                    
P  5 -17606.314548  -3934.960121 -19603.525191   -268.061877                    
V  5  18495.819516 -16523.223324 -13153.321977      0.049928                    
P  6  -6332.945945 -25563.372170  -3505.621471    105.952805                    
V  6   2043.635734  -4805.380800  31357.211452      0.106578                    
P  7   7770.733699 -20299.820195 -14914.406583    446.991498                    
V  7   4427.771312  18833.291767 -23524.466335      0.029831                    
P  8  10160.445944  19508.183690 -15125.711213     18.405938                    
V  8   -606.040927  19274.006239  23529.519707      0.003644                    
P  9  12053.814766 -11092.999121 -20918.663586   -110.465578                    
V  9  24448.151368  10376.693178   8577.026551     -0.100670                    
P 10   -154.744776 -18070.400483 -19711.620363   -166.796909                    
V 10  20200.567365 -13788.103426  13153.767480     -0.014851                    
P 11  17181.015000  -1480.007679  19704.208854   -563.663749                    
V 11  11249.236351  23982.704625  -7662.103375     -0.026730                    
P 12 -23017.221622   9549.405001   8773.060131    275.920170                    
V 12   8013.127278  -8194.019165  29864.630954      0.030358                    
P 13 -23049.974408 -13027.095274  -1112.848337    -95.820061                    
V 13   2249.449234  -1618.693153 -32095.022926     -0.033935                    
P 14   8009.530500  17871.363820  18242.034568     79.749432                    
V 14 -20929.112621  -8686.919466  17785.695678     -0.035121                    
P 15 -25138.789982  -1732.278367   8797.170916   -237.154309                    
V 15  -9625.511508  -6590.983260 -28198.257084     -0.022024                    
P 16  16927.652154   4353.085944 -20182.568044   -148.918341                    
V 16 -20418.873493  14932.874280 -13582.656346      0.034530                    
P 17  -5869.361751 -17313.314572  19637.080191   -160.464306                    
V 17  22497.210987   8983.848004  14659.939845     -0.022964                    
P 18 -12114.786843  20894.322040  11177.430636    385.673150                    
V 18 -12747.481869   6027.559971 -26530.573247      0.028108                    
P 19  24832.147270   7838.793680   6176.290045   -503.601959                    
V 19   6141.924714   5502.201596 -30340.616259     -0.013390                    
P 20     75.393414 -19076.039494 -18656.596059    298.674774                    
V 20  18544.709290 -14448.214916  15087.608942      0.040739                    
P 21  -4245.881935  23382.572325 -10760.913025   -425.428017                    
V 21  -5994.565383 -14105.276413 -26984.089874     -0.039328                    
P 22   -769.011076  18970.504801  18731.057660    327.549809                    
V 22 -19400.472118  13442.385090 -14759.815848      0.040657                    
P 23  21310.300094  -3508.361309 -15601.679886    -94.485124                    
V 23  17752.632347   9246.103049  21553.228691     -0.025579                    
P 24 -14791.084476   4353.230870  21587.325722    -44.828941                    
V 24  -4730.865285 -27111.594577   2364.601628     -0.006123                    
P 25 -19149.448939  18008.136781  -3209.756720    -10.221797                    
V 25  -4593.414763    621.002750  31898.446206     -0.030687                    
P 27  23097.990613  12411.846505  -4569.774935     57.265577                    
V 27  -6287.806317    234.538722 -31105.348007      0.026631                    
P 28   6871.082012 -18977.045962  17838.598262    425.318371                    
V 28  18227.448590 -11264.002438 -19786.809094      0.026297                    
P 29 -15905.465224   7593.731929 -19822.656277    597.287805                    
V 29 -22487.912492 -11473.402107  13668.932660      0.024996                    
P 30   1930.739989 -25911.580190  -5390.492867    -80.511544                    
V 30   3385.982303   6618.759367 -30702.988061      0.024424                    
P 31   7223.049006  24508.429003  -6433.653282    321.365881                    
V 31  -1553.720977   8646.576130  30888.099736     -0.009272                    
P 32  20170.727786   1169.199288  16940.257678   -203.468688                    
V 32 -16821.275295  14043.708424  19586.623104      0.093433                    
EOF
